437P/Lemmon-PANSTARRS,e,3.6890,245.8407,207.0683,4.569096,0.1009157,0.25504813,106.3355,07/09.0/2025,2000,g 13.0,4.0
# From MPEC 2025-A40
438P/Christensen,e,8.2807,260.1085,58.9829,3.852720,0.1303325,0.41413240,250.7635,07/09.0/2025,2000,g 14.5,4.0
# From MPEC 2022-C56
439P/LINEAR,e,7.1119,56.4378,342.1064,3.491883,0.1510478,0.46907645,213.3761,07/09.0/2025,2000,g 13.5,4.0
# From MPEC 2024-N80
440P/Kobayashi,e,12.3512,328.8032,183.3020,8.579381,0.0392211,0.76087500,46.9316,07/09.0/2025,2000,g 15.5,4.0
# From MPEC 2025-N64
441P/PANSTARRS,e,2.5744,143.5867,178.8691,4.132128,0.1173393,0.19462192,352.6783,07/09.0/2025,2000,g 13.5,4.0
# From MPEC 2024-N80
442P/McNaught,e,6.0574,31.9443,310.6370,4.954341,0.0893769,0.53257970,94.4157,07/09.0/2025,2000,g 13.5,4.0
# From MPEC 2024-TD8
443P/PANSTARRS-Christensen,e,19.8880,108.9335,145.0719,4.124611,0.1176602,0.28292131,118.0858,07/09.0/2025,2000,g 13.5,4.0
# From MPEC 2023-VM5
444P/WISE-PANSTARRS,e,22.7256,88.1853,172.8581,3.473866,0.1522244,0.55722522,168.2273,07/09.0/2025,2000,g 17.0,4.0
# From MPEC 2024-BE0
445P/Lemmon-PANSTARRS,e,1.0889,126.5908,213.2000,4.045871,0.1211117,0.41419090,128.1128,07/09.0/2025,2000,g 15.0,4.0
# From MPEC 2024-NE4
446P/McNaught,e,16.6300,336.3338,344.6222,4.559695,0.1012279,0.64678214,115.1305,07/09.0/2025,2000,g 16.5,4.0
# From MPEC 2022-YB4
447P/Sheppard-Tholen,e,7.4413,302.6373,97.4998,5.625511,0.0738688,0.17724266,78.1418,07/09.0/2025,2000,g 12.0,4.0
# From MPEC 2024-PC5
448P/PANSTARRS,e,12.1448,161.7539,218.8016,3.636433,0.1421316,0.41813857,147.3729,07/09.0/2025,2000,g 16.0,4.0
# From MPEC 2024-DC6
449P/Leonard,e,15.4700,242.5218,176.7672,3.599813,0.1443059,0.47976710,243.3821,07/09.0/2025,2000,g 16.0,4.0
# From MPC184420
450P/LONEOS,e,10.6966,124.2288,23.7397,7.932754,0.0441132,0.31429914,334.6653,07/09.0/2025,2000,g  6.5,4.0
# From MPEC 2023-HD1
451P/Christensen,e,26.4851,300.8675,186.7945,6.350221,0.0615915,0.55923887,58.7595,07/09.0/2025,2000,g 15.5,4.0
# From MPEC 2024-NE4
452P/Sheppard-Jewitt,e,6.4220,123.6651,37.0981,7.311203,0.0498564,0.42857425,40.1343,07/09.0/2025,2000,g  9.0,4.0
# From MPEC 2023-RF3
453P/WISE-Lemmon,e,27.0593,42.8919,70.9004,5.467493,0.0770942,0.58314917,66.1951,07/09.0/2025,2000,g 14.0,4.0
# From MPEC 2023-CD7
454P/PANSTARRS,e,19.8093,54.5860,20.1973,4.211508,0.1140375,0.36141926,122.9704,07/09.0/2025,2000,g 14.0,4.0
# From MPEC 2022-Y14
455P/PANSTARRS,e,14.1348,146.1800,237.5355,3.153401,0.1760091,0.30442849,152.2632,07/09.0/2025,2000,g 17.0,4.0
# From MPC182892
456P/PANSTARRS,e,16.9651,243.1434,232.9987,3.169470,0.1746724,0.11586739,14.8655,07/09.0/2025,2000,g 13.5,4.0
# From MPEC 2025-A40
457P/Lemmon-PANSTARRS,e,5.2257,175.9634,104.3163,2.645141,0.2291030,0.11838138,73.9859,07/09.0/2025,2000,g 15.5,4.0
# From MPEC 2023-HD1
458P/Jahn,e,13.6221,1.5601,104.9369,3.859282,0.1300003,0.31725669,127.6868,07/09.0/2025,2000,g 17.3,4.0
# From MPEC 2024-N80
459P/Catalina,e,7.1737,256.9876,205.2261,3.240431,0.1689662,0.57786048,146.7154,07/09.0/2025,2000,g 15.5,4.0
# From MPEC 2023-G14
460P/PANSTARRS,e,18.9000,180.5168,351.9344,3.027274,0.1871227,0.66422523,277.7332,07/09.0/2025,2000,g 21.0,4.0
# From MPEC 2024-GJ3
461P/WISE,e,18.3987,194.3769,174.8308,3.144402,0.1767653,0.56956247,242.7963,07/09.0/2025,2000,g 18.5,4.0
# From MPEC 2024-BE0
462P/LONEOS-PANSTARRS,e,7.0470,322.6617,4.2174,4.862215,0.0919290,0.57849326,98.6276,07/09.0/2025,2000,g 17.0,4.0
# From MPEC 2024-GJ3
463P/NEOWISE,e,29.2960,283.2180,216.3407,2.974120,0.1921615,0.82589829,159.9052,07/09.0/2025,2000,g 18.0,4.0
# From MPEC 2024-Q20
464P/PANSTARRS,e,21.6734,309.5783,267.5235,4.683897,0.0972284,0.28058292,83.8777,07/09.0/2025,2000,g 10.5,4.0
# From MPEC 2024-NE4
465P/Hill,e,25.8617,217.9545,140.9827,6.007929,0.0669294,0.61314361,53.0129,07/09.0/2025,2000,g 12.5,4.0
# From MPEC 2024-JU4
466P/PANSTARRS,e,12.9597,117.8490,198.0201,4.036641,0.1215273,0.47928378,95.9973,07/09.0/2025,2000,g 14.0,4.0
# From MPEC 2025-A40
467P/LINEAR-Grauer,e,2.4793,43.2629,267.4646,5.826082,0.0700873,0.05447617,66.9763,07/09.0/2025,2000,g  9.0,4.0
# From MPEC 2024-O39
468P/SidingSpring,e,50.4521,356.1261,322.5762,7.117316,0.0519074,0.44495784,30.9321,07/09.0/2025,2000,g 11.5,4.0
# From MPEC 2025-A40
469P/PANSTARRS,e,20.1722,178.9673,43.4948,4.342559,0.1089145,0.30801220,343.4005,07/09.0/2025,2000,g 13.5,4.0
# From MPC182892
470P/PANSTARRS,e,8.8440,246.1682,151.6849,4.463585,0.1045149,0.38936611,59.6030,07/09.0/2025,2000,g 15.5,4.0
# From MPC182892
471P/LINEAR-Lemmon,e,4.7970,283.3125,94.7831,5.693289,0.0725536,0.62769594,41.1509,07/09.0/2025,2000,g 12.0,4.0
# From MPEC 2025-MC0
472P/NEAT-LINEAR,e,10.8243,205.8431,218.8359,7.778175,0.0454347,0.56451235,16.3522,07/09.0/2025,2000,g 10.5,4.0
# From MPEC 2024-MB8
473P/NEAT,e,56.8961,22.1901,42.9376,7.972633,0.0437826,0.82359664,21.8372,07/09.0/2025,2000,g 13.5,4.0
# From MPEC 2024-B74
474P/Hogan,e,1.0969,26.7500,11.2620,3.130516,0.1779427,0.18804938,128.8919,07/09.0/2025,2000,g 15.5,4.0
# From MPEC 2025-MC0
475P/Spacewatch-LINEAR,e,14.5237,147.3597,40.4095,7.317876,0.0497882,0.44281655,20.0317,07/09.0/2025,2000,g 11.0,4.0
# From MPC184421
476P/PANSTARRS,e,19.0053,57.0496,46.7333,4.774884,0.0944626,0.34586341,25.0823,07/09.0/2025,2000,g 12.5,4.0
# From MPEC 2024-GJ3
477P/PANSTARRS,e,8.9138,59.1453,305.8750,3.001969,0.1894937,0.41753962,106.2070,07/09.0/2025,2000,g 14.5,4.0
# From MPEC 2024-L77
478P/ATLAS,e,12.5247,127.2627,13.2444,3.647958,0.1414586,0.34375308,61.2273,07/09.0/2025,2000,g 13.5,4.0
# From MPEC 2024-PC5
479P/Elenin,e,15.3997,295.8325,263.5051,5.622921,0.0739199,0.77890857,31.7662,07/09.0/2025,2000,g 15.0,4.0
# From MPC182893
480P/PANSTARRS,e,13.7166,229.9817,214.4176,4.610829,0.0995487,0.24631864,80.3596,07/09.0/2025,2000,g 12.0,4.0
# From MPEC 2025-A40
481P/Lemmon-PANSTARRS,e,6.0826,93.5502,356.8036,4.681688,0.0972972,0.34346600,71.0950,07/09.0/2025,2000,g 13.5,4.0
# From MPEC 2024-JU4
482P/PANSTARRS,e,24.4872,126.0771,339.7260,3.756884,0.1353513,0.49236682,103.9264,07/09.0/2025,2000,g 13.5,4.0
# From MPEC 2024-R10
483P-A/PANSTARRS,e,14.1854,199.2464,49.1924,3.195123,0.1725729,0.22225246,212.4730,07/09.0/2025,2000,g 13.5,4.0
# From MPEC 2025-MC0
483P-B/PANSTARRS,e,14.1862,199.2457,49.1823,3.195047,0.1725791,0.22219382,212.5090,07/09.0/2025,2000,g 17.0,4.0
# From MPEC 2024-DD5
484P/Spacewatch,e,14.4743,265.3804,240.7999,3.756894,0.1353508,0.43294889,227.9497,07/09.0/2025,2000,g 16.0,4.0
# From MPEC 2024-JU4
485P/Sheppard-Tholen,e,10.0161,261.6445,196.1019,6.850991,0.0549635,0.41718052,37.5825,07/09.0/2025,2000,g 13.0,4.0
# From MPEC 2025-N64
486P/Leonard,e,2.2095,219.0231,93.9465,3.627758,0.1426417,0.36352661,13.7149,07/09.0/2025,2000,g 14.5,4.0
# From MPEC 2025-MC0
487P/SidingSpring,e,39.3660,49.2028,0.8420,5.161982,0.0840387,0.64844545,21.9687,07/09.0/2025,2000,g 13.5,4.0
# From MPEC 2024-UA9
488P/NEAT-PANSTARRS,e,11.3759,323.9254,1.7476,3.741500,0.1361869,0.55116902,56.5793,07/09.0/2025,2000,g 16.5,4.0
# From MPEC 2024-Q14
489P/Denning,e,4.0262,20.6087,109.4254,4.424591,0.1058996,0.64715041,344.2919,07/09.0/2025,2000,g 15.5,4.0
# From MPEC 2024-YC7
490P/ATLAS,e,12.2664,307.5992,332.5476,3.030052,0.1868654,0.64716390,53.0369,07/09.0/2025,2000,g 21.0,4.0
# From MPEC 2025-N64
491P/Spacewatch-PANSTARRS,e,9.3663,311.6841,298.8787,5.013305,0.0878047,0.25869171,26.8691,07/09.0/2025,2000,g  9.5,4.0
# From MPEC 2025-MC0
492P/LINEAR,e,11.4011,11.3049,40.9827,5.759579,0.0713047,0.69061063,25.2103,07/09.0/2025,2000,g 15.0,4.0
# From MPEC 2025-N64
493P/LONEOS,e,24.1112,1.1045,83.2016,7.167694,0.0513612,0.46661480,350.2881,07/09.0/2025,2000,g 12.0,2.0
# From MPEC 2024-RQ6
494P/PANSTARRS,e,7.7899,245.0431,48.8802,3.794486,0.1333444,0.35682270,53.8720,07/09.0/2025,2000,g 16.0,4.0
# From MPEC 2025-A40
495P/Christensen,e,26.3550,291.6169,141.3352,4.756459,0.0950120,0.27258547,349.9892,07/09.0/2025,2000,g 11.5,4.0
# From MPEC 2025-N64
496P/Hill,e,14.8144,63.5861,42.2449,6.098818,0.0654388,0.73420570,7.9001,07/09.0/2025,2000,g 14.0,4.0
# From MPC184421
497P/Spacewatch-PANSTARRS,e,10.4367,40.3706,32.4009,5.614672,0.0740828,0.63042895,10.6453,07/09.0/2025,2000,g 17.5,4.0
# From MPC184421
498P/LINEAR,e,14.4828,279.2307,179.0800,4.592726,0.1001379,0.57229467,20.2369,07/09.0/2025,2000,g 14.7,4.0
# From MPEC 2025-MC0
499P/Catalina,e,24.5822,139.3084,2.5579,3.017631,0.1880203,0.69146038,23.8047,07/09.0/2025,2000,g 18.5,4.0
# From MPEC 2025-MC0
500P/PANSTARRS,e,2.3015,111.5277,46.6897,3.415663,0.1561319,0.37586491,15.4654,07/09.0/2025,2000,g 16.0,4.0
# From MPC182882
501P/Rankin,e,10.0469,139.7801,53.6929,2.228035,0.2963609,0.69845426,133.5688,07/09.0/2025,2000,g 21.5,4.0
# From MPEC 2025-N64
502P/NEAT,e,11.3996,264.4847,37.7411,7.997806,0.0435760,0.47116769,358.8198,07/09.0/2025,2000,g  8.5,4.0
# From MPEC 2025-N64
503P/PANSTARRS,e,10.5748,268.5821,17.9512,3.657950,0.1408794,0.48131240,343.1556,07/09.0/2025,2000,g 15.0,4.0
# From MPC107687
1I/`Oumuamua,h,09/09.4886/2017,122.6778,24.5997,241.6845,1.199252,0.255240,2000,23.0,2.0
# From MPEC 2023-L37
2I/Borisov,h,12/08.5548/2019,44.0527,308.1480,209.1251,3.356633,2.006548,2000,11.0,4.0
# From MPC xxxxx
3I/ATLAS,h,10/29.4684/2025,175.1122,322.1497,127.9847,6.146838,1.357416,2000,11.8,4.0
